[
    {
        "Altitude(m)": 607910.9918953923,
        "Argument of Periapsis(deg)": 0.0,
        "Eccentricity": 0.0,
        "Inclination(deg)": 60.0,
        "Latitude(deg)": -14.292847574107702,
        "Longitude(deg)": 133.44263600442048,
        "Mean Anomaly(deg)": 196.36359999999996,
        "RAAN(deg)": 45.0,
        "Satellite Name": "Test1 210",
        "Satellite Number": 210,
        "Semi-Major Axis(m)": 6980739.136638005,
        "Time(s)": 0
    },
    {
        "Altitude(m)": 608060.2249487044,
        "Argument of Periapsis(deg)": 0.00010418945913296404,
        "Eccentricity": 0.0,
        "Inclination(deg)": 60.0,
        "Latitude(deg)": -14.826509212927657,
        "Longitude(deg)": 133.73124486784067,
        "Mean Anomaly(deg)": 196.98370614546184,
        "RAAN(deg)": 44.99957995086026,
        "Satellite Name": "Test1 210",
        "Satellite Number": 210,
        "Semi-Major Axis(m)": 6980739.136638005,
        "Time(s)": 10
    }
]